{"type": "FeatureCollection", "features": [ {"type": "Feature", "properties": {"norad_id": 28649, "name": "IRS-P5 (CARTOSAT-1)", "group": "resource", "lat": -46.59744926341572, "lon": 29.489982007817254, "alt_km": 603.4862210940983, "timestamp": "2025-12-21T09:37:22.304852+00:00", "meta": {"OBJECT_NAME": "IRS-P5 (CARTOSAT-1)", "OBJECT_ID": "2005-017A", "EPOCH": "2025-12-21T01:46:39.296352", "MEAN_MOTION": 14.90430022, "ECCENTRICITY": 7.42e-05, "INCLINATION": 97.5484, "RA_OF_ASC_NODE": 21.1176, "ARG_OF_PERICENTER": 52.3695, "MEAN_ANOMALY": 307.7591, "EPHEMERIS_TYPE": 0, "CLASSIFICATION_TYPE": "U", "NORAD_CAT_ID": 28649, "ELEMENT_SET_NO": 999, "REV_AT_EPOCH": 11728, "BSTAR": 0.00011253, "MEAN_MOTION_DOT": 1.044e-05, "MEAN_MOTION_DDOT": 0}, "tle": {"line1": "1 28649U 05017A   25355.07406593  .00001044  00000+0  11253-3 0  9999", "line2": "2 28649  97.5484  21.1176 0000742  52.3695 307.7591 14.90430022117285"}}, "geometry": {"type": "Point", "coordinates": [29.489982007817254, -46.59744926341572]}}, {"type": "Feature", "properties": {"norad_id": 28893, "name": "SINAH 1", "group": "resource", "lat": -23.274972127406706, "lon": -59.60144574836501, "alt_km": 686.1715958713976, "timestamp": "2025-12-21T09:37:22.304863+00:00", "meta": {"OBJECT_NAME": "SINAH 1", "OBJECT_ID": "2005-043D", "EPOCH": "2025-12-21T03:46:37.347744", "MEAN_MOTION": 14.63970485, "ECCENTRICITY": 0.0015658, "INCLINATION": 98.2608, "RA_OF_ASC_NODE": 123.7373, "ARG_OF_PERICENTER": 112.38, "MEAN_ANOMALY": 247.9063, "EPHEMERIS_TYPE": 0, "CLASSIFICATION_TYPE": "U", "NORAD_CAT_ID": 28893, "ELEMENT_SET_NO": 999, "REV_AT_EPOCH": 7447, "BSTAR": 6.4943e-05, "MEAN_MOTION_DOT": 2.92e-06, "MEAN_MOTION_DDOT": 0}, "tle": {"line1": "1 28893U 05043D   25355.15737671  .00000292  00000+0  64943-4 0  9991", "line2": "2 28893  98.2608 123.7373 0015658 112.3800 247.9063 14.63970485 74471"}}, "geometry": {"type": "Point", "coordinates": [-59.60144574836501, -23.274972127406706]}}, {"type": "Feature", "properties": {"norad_id": 29079, "name": "EROS B", "group": "resource", "lat": -78.9056804510989, "lon": -108.73937588910664, "alt_km": 362.12068757972156, "timestamp": "2025-12-21T09:37:22.304874+00:00", "meta": {"OBJECT_NAME": "EROS B", "OBJECT_ID": "2006-014A", "EPOCH": "2025-12-21T05:27:15.398784", "MEAN_MOTION": 15.70835763, "ECCENTRICITY": 0.0003553, "INCLINATION": 97.3462, "RA_OF_ASC_NODE": 112.2216, "ARG_OF_PERICENTER": 310.646, "MEAN_ANOMALY": 49.4493, "EPHEMERIS_TYPE": 0, "CLASSIFICATION_TYPE": "U", "NORAD_CAT_ID": 29079, "ELEMENT_SET_NO": 999, "REV_AT_EPOCH": 9213, "BSTAR": 0.0011394, "MEAN_MOTION_DOT": 0.00143631, "MEAN_MOTION_DDOT": 0}, "tle": {"line1": "1 29079U 06014A   25355.22726156  .00143631  00000+0  11394-2 0  9996", "line2": "2 29079  97.3462 112.2216 0003553 310.6460  49.4493 15.70835763 92134"}}, "geometry": {"type": "Point", "coordinates": [-108.73937588910664, -78.9056804510989]}}, {"type": "Feature", "properties": {"norad_id": 29228, "name": "RESURS-DK 1", "group": "resource", "lat": -22.311289741088014, "lon": -91.91748484219951, "alt_km": 531.0908350008795, "timestamp": "2025-12-21T09:37:22.304884+00:00", "meta": {"OBJECT_NAME": "RESURS-DK 1", "OBJECT_ID": "2006-021A", "EPOCH": "2025-12-20T16:50:56.206752", "MEAN_MOTION": 15.12200991, "ECCENTRICITY": 0.00068548, "INCLINATION": 69.9339, "RA_OF_ASC_NODE": 81.261, "ARG_OF_PERICENTER": 252.2232, "MEAN_ANOMALY": 107.8186, "EPHEMERIS_TYPE": 0, "CLASSIFICATION_TYPE": "U", "NORAD_CAT_ID": 29228, "ELEMENT_SET_NO": 999, "REV_AT_EPOCH": 7558, "BSTAR": 0.00010511178, "MEAN_MOTION_DOT": 1.712e-05, "MEAN_MOTION_DDOT": 0}, "tle": {"line1": "1 29228U 06021A   25354.70203943  .00001712  00000+0  10511-3 0  9990", "line2": "2 29228  69.9339  81.2610 0006854 252.2232 107.8186 15.12200991 75589"}}, "geometry": {"type": "Point", "coordinates": [-91.91748484219951, -22.311289741088014]}}, {"type": "Feature", "properties": {"norad_id": 29268, "name": "ARIRANG-2 (KOMPSAT-2)", "group": "resource", "lat": 54.33489423563323, "lon": 14.499128343765936, "alt_km": 681.9445059854506, "timestamp": "2025-12-21T09:37:22.304895+00:00", "meta": {"OBJECT_NAME": "ARIRANG-2 (KOMPSAT-2)", "OBJECT_ID": "2006-031A", "EPOCH": "2025-12-21T04:44:05.375616", "MEAN_MOTION": 14.64500179, "ECCENTRICITY": 0.0013173, "INCLINATION": 97.8253, "RA_OF_ASC_NODE": 183.2575, "ARG_OF_PERICENTER": 280.0794, "MEAN_ANOMALY": 211.6957, "EPHEMERIS_TYPE": 0, "CLASSIFICATION_TYPE": "U", "NORAD_CAT_ID": 29268, "ELEMENT_SET_NO": 999, "REV_AT_EPOCH": 3542, "BSTAR": 4.1435e-05, "MEAN_MOTION_DOT": 1.75e-06, "MEAN_MOTION_DDOT": 0}, "tle": {"line1": "1 29268U 06031A   25355.19728444  .00000175  00000+0  41435-4 0  9999", "line2": "2 29268  97.8253 183.2575 0013173 280.0794 211.6957 14.64500179 35421"}}, "geometry": {"type": "Point", "coordinates": [14.499128343765936, 54.33489423563323]}}, {"type": "Feature", "properties": {"norad_id": 29709, "name": "LAPAN-TUBSAT", "group": "resource", "lat": -1.0633905251268119, "lon": -14.112562658151207, "alt_km": 608.5456792743171, "timestamp": "2025-12-21T09:37:22.304906+00:00", "meta": {"OBJECT_NAME": "LAPAN-TUBSAT", "OBJECT_ID": "2007-001A", "EPOCH": "2025-12-21T04:46:42.504384", "MEAN_MOTION": 14.85682337, "ECCENTRICITY": 0.0013359, "INCLINATION": 98.1252, "RA_OF_ASC_NODE": 345.5295, "ARG_OF_PERICENTER": 49.319, "MEAN_ANOMALY": 310.9183, "EPHEMERIS_TYPE": 0, "CLASSIFICATION_TYPE": "U", "NORAD_CAT_ID": 29709, "ELEMENT_SET_NO": 999, "REV_AT_EPOCH": 2472, "BSTAR": 9.2168e-05, "MEAN_MOTION_DOT": 7.43e-06, "MEAN_MOTION_DDOT": 0}, "tle": {"line1": "1 29709U 07001A   25355.19910306  .00000743  00000+0  92168-4 0  9997", "line2": "2 29709  98.1252 345.5295 0013359  49.3190 310.9183 14.85682337 24723"}}, "geometry": {"type": "Point", "coordinates": [-14.112562658151207, -1.0633905251268119]}}, {"type": "Feature", "properties": {"norad_id": 31113, "name": "HAIYANG-1B", "group": "resource", "lat": -19.0033378293255, "lon": -17.785474890848594, "alt_km": 785.1575208304521, "timestamp": "2025-12-21T09:37:22.304916+00:00", "meta": {"OBJECT_NAME": "HAIYANG-1B", "OBJECT_ID": "2007-010A", "EPOCH": "2025-12-20T20:17:13.259040", "MEAN_MOTION": 14.30967553, "ECCENTRICITY": 0.0013866, "INCLINATION": 98.3321, "RA_OF_ASC_NODE": 338.7888, "ARG_OF_PERICENTER": 14.9776, "MEAN_ANOMALY": 345.1816, "EPHEMERIS_TYPE": 0, "CLASSIFICATION_TYPE": "U", "NORAD_CAT_ID": 31113, "ELEMENT_SET_NO": 999, "REV_AT_EPOCH": 97512, "BSTAR": 4.2056e-05, "MEAN_MOTION_DOT": 6.9e-07, "MEAN_MOTION_DDOT": 0}, "tle": {"line1": "1 31113U 07010A   25354.84529235  .00000069  00000+0  42056-4 0  9999", "line2": "2 31113  98.3321 338.7888 0013866  14.9776 345.1816 14.30967553975125"}}, "geometry": {"type": "Point", "coordinates": [-17.785474890848594, -19.0033378293255]}}, {"type": "Feature", "properties": {"norad_id": 31598, "name": "COSMO-SKYMED 1", "group": "resource", "lat": -82.10900003344076, "lon": -90.40300970989591, "alt_km": 588.2344325916829, "timestamp": "2025-12-21T09:37:22.304927+00:00", "meta": {"OBJECT_NAME": "COSMO-SKYMED 1", "OBJECT_ID": "2007-023A", "EPOCH": "2025-12-21T03:36:08.057664", "MEAN_MOTION": 14.95825548, "ECCENTRICITY": 0.0001555, "INCLINATION": 97.8838, "RA_OF_ASC_NODE": 180.6046, "ARG_OF_PERICENTER": 82.2669, "MEAN_ANOMALY": 277.8728, "EPHEMERIS_TYPE": 0, "CLASSIFICATION_TYPE": "U", "NORAD_CAT_ID": 31598, "ELEMENT_SET_NO": 999, "REV_AT_EPOCH": 316, "BSTAR": 0.00023531, "MEAN_MOTION_DOT": 2.568e-05, "MEAN_MOTION_DDOT": 0}, "tle": {"line1": "1 31598U 07023A   25355.15009326  .00002568  00000+0  23531-3 0  9991", "line2": "2 31598  97.8838 180.6046 0001555  82.2669 277.8728 14.95825548  3167"}}, "geometry": {"type": "Point", "coordinates": [-90.40300970989591, -82.10900003344076]}}, {"type": "Feature", "properties": {"norad_id": 31698, "name": "TERRASAR-X", "group": "resource", "lat": -66.13214500204725, "lon": 17.845815167354633, "alt_km": 516.841000896693, "timestamp": "2025-12-21T09:37:22.304937+00:00", "meta": {"OBJECT_NAME": "TERRASAR-X", "OBJECT_ID": "2007-026A", "EPOCH": "2025-12-20T11:47:12.844032", "MEAN_MOTION": 15.19153914, "ECCENTRICITY": 0.0001874, "INCLINATION": 97.4453, "RA_OF_ASC_NODE": 359.7585, "ARG_OF_PERICENTER": 92.6145, "MEAN_ANOMALY": 267.5304, "EPHEMERIS_TYPE": 0, "CLASSIFICATION_TYPE": "U", "NORAD_CAT_ID": 31698, "ELEMENT_SET_NO": 999, "REV_AT_EPOCH": 2609, "BSTAR": 3.1273e-05, "MEAN_MOTION_DOT": 5.9e-06, "MEAN_MOTION_DDOT": 0}, "tle": {"line1": "1 31698U 07026A   25354.49112088  .00000590  00000+0  31273-4 0  9997", "line2": "2 31698  97.4453 359.7585 0001874  92.6145 267.5304 15.19153914 26093"}}, "geometry": {"type": "Point", "coordinates": [17.845815167354633, -66.13214500204725]}}, {"type": "Feature", "properties": {"norad_id": 32060, "name": "WORLDVIEW-1 (WV-1)", "group": "resource", "lat": 74.88069781226328, "lon": -38.56401842632466, "alt_km": 487.2454359667354, "timestamp": "2025-12-21T09:37:22.304947+00:00", "meta": {"OBJECT_NAME": "WORLDVIEW-1 (WV-1)", "OBJECT_ID": "2007-041A", "EPOCH": "2025-12-20T18:59:18.403872", "MEAN_MOTION": 15.23883027, "ECCENTRICITY": 0.000347, "INCLINATION": 97.3825, "RA_OF_ASC_NODE": 112.1576, "ARG_OF_PERICENTER": 9.7326, "MEAN_ANOMALY": 350.3978, "EPHEMERIS_TYPE": 0, "CLASSIFICATION_TYPE": "U", "NORAD_CAT_ID": 32060, "ELEMENT_SET_NO": 999, "REV_AT_EPOCH": 1570, "BSTAR": 0.00024401, "MEAN_MOTION_DOT": 5.82e-05, "MEAN_MOTION_DDOT": 0}, "tle": {"line1": "1 32060U 07041A   25354.79118523  .00005820  00000+0  24401-3 0  9996", "line2": "2 32060  97.3825 112.1576 0003470   9.7326 350.3978 15.23883027 15708"}}, "geometry": {"type": "Point", "coordinates": [-38.56401842632466, 74.88069781226328]}}]}